HERMES-3                
1 63835U 25052BR  26068.93751242  .00020316  00000+0  69958-3 0  9995
2 63835  97.3987 324.6131 0007993 112.9583 247.2502 15.30039785 54863
STARLINK-35434          
1 66246U 25245N   26068.87312064  .00024159  00000+0  82495-3 0  9996
2 66246  53.1567 283.1123 0000778  94.0216 266.0874 15.30207836 21075
